CCSDS_OEM_VERS = 2.0
CREATION_DATE  = 2023-04-19T21:52:16.259
ORIGINATOR     = NASA/JSC/FOD/TOPO

META_START
OBJECT_NAME          = ISS
OBJECT_ID            = 1998-067-A
CENTER_NAME          = Earth
REF_FRAME            = EME2000
TIME_SYSTEM          = UTC
START_TIME           = 2023-04-19T12:00:00.000
USEABLE_START_TIME   = 2023-04-19T12:00:00.000
USEABLE_STOP_TIME    = 2023-05-04T12:00:00.000
STOP_TIME            = 2023-05-04T12:00:00.000
META_STOP

COMMENT Source: This file was produced by the TOPO office within FOD at JSC.
COMMENT Units are in kg and m^2
COMMENT MASS=454160.00
COMMENT DRAG_AREA=1450.15
COMMENT DRAG_COEFF=2.50
COMMENT SOLAR_RAD_AREA=0.00
COMMENT SOLAR_RAD_COEFF=0.00
COMMENT Orbits start at the ascending node epoch
COMMENT ISS first asc. node: EPOCH = 2023-04-19T12:30:03.252 $ ORBIT = 3268 $ LAN(DEG) = -135.59701
COMMENT ISS last asc. node : EPOCH = 2023-05-04T11:26:51.810 $ ORBIT = 3500 $ LAN(DEG) = 151.34785
COMMENT Begin sequence of events
COMMENT TRAJECTORY EVENT SUMMARY:
COMMENT 
COMMENT |       EVENT        |       TIG        | ORB |   DV    |   HA    |   HP    |
COMMENT |                    |       GMT        |     |   M/S   |   KM    |   KM    |
COMMENT |                    |                  |     |  (F/S)  |  (NM)   |  (NM)   |
COMMENT =============================================================================
COMMENT  NG-18 Release         111:11:20:00.000             0.0     420.9     411.7
COMMENT                                                    (0.0)   (227.2)   (222.3)
COMMENT 
COMMENT  NRCSD-25 Deploy #1    114:12:05:00.000             0.0     419.4     412.1
COMMENT                                                    (0.0)   (226.4)   (222.5)
COMMENT 
COMMENT  NRCSD-25 Deploy #2    114:12:15:00.000             0.0     419.5     412.1
COMMENT                                                    (0.0)   (226.5)   (222.5)
COMMENT 
COMMENT  Reboost GMT 120       120:00:16:00.000             1.2     417.1     412.4
COMMENT                                                    (3.9)   (225.2)   (222.7)
COMMENT 
COMMENT =============================================================================
COMMENT End sequence of events
2023-04-27T16:35:00.000 -2206.862478475200 3627.372424959480 -5304.763190332080 -6.20950281509425 -4.45350982956608 -0.46374640520842
2023-04-27T16:39:00.000 -3599.056051751260 2439.938846601760 -5221.790651973700 -5.32147776752414 -5.38152100115497 1.15095742380943
2023-04-27T16:43:00.000 -4730.192546787480 1075.532562034620 -4758.985118168540 -4.04714199287076 -5.91933253905390 2.68233191063889
2023-04-27T16:47:00.000 -5518.045950988320 -366.909260079964 -3949.843494999450 -2.47805196482318 -6.02777430451424 4.01950614580482
2023-04-27T16:51:00.000 -5905.089924343970 -1782.677739245720 -2853.007644265910 -0.72733689647276 -5.69826818893651 5.06505394743850
2023-04-27T16:55:00.000 -5862.784848121770 -3068.812726393950 -1548.164234334370 1.07800649424270 -4.95397116413544 5.74216471014411
2023-04-27T16:59:00.000 -5393.823441439790 -4131.616819056930 -130.342170264420 2.80630621029187 -3.84849031485537 6.00063186330807
2023-04-27T17:03:00.000 -4532.096657243810 -4893.577880556380 1296.995223646380 4.33087659362749 -2.46234110181011 5.82091120946741
2023-04-27T17:07:00.000 -3340.309038193150 -5299.172632053950 2629.605581662370 5.53990820457832 -0.89703433496333 5.21613081083654
2023-04-27T17:11:00.000 -1905.323847543660 -5318.975374328890 3770.228267856710 6.34515736662361 0.73286847967569 4.23090873995743
2023-04-27T17:15:00.000 -331.691402814123 -4951.750181686440 4635.739100468190 6.68833102341935 2.30849223629898 2.93764896826014
2023-04-27T17:19:00.000 1266.064523217450 -4224.425005063450 5163.178969033550 6.54505134910263 3.71546500930911 1.43088221189099
2023-04-27T17:23:00.000 2771.785064182300 -3190.009311033000 5314.223603136830 5.92605729494381 4.85206650419130 -0.17987797024065
2023-04-27T17:27:00.000 4076.009121810510 -1923.704908149010 5077.863727745440 4.87607306484355 5.63611400025760 -1.77783370390350
2023-04-27T17:31:00.000 5083.808790303350 -517.518443470720 4471.192672740660 3.47080770971306 6.01059875500339 -3.24697600805444
2023-04-27T17:35:00.000 5721.641635480320 926.316290464248 3538.230107148480 1.81174860839441 5.94781658691286 -4.48023709643075
2023-04-27T17:39:00.000 5942.755732302170 2302.676113563070 2346.850010435430 0.01938613799325 5.45163612794495 -5.38714662491368
2023-04-27T17:43:00.000 5730.755419311570 3511.208486095120 983.944002331097 -1.77534602463982 4.55778865228494 -5.90072703246055
2023-04-27T17:47:00.000 5100.958149385740 4463.761964514660 -450.902619286649 -3.44079104039801 3.33161933307735 -5.98293748423598
2023-04-27T17:51:00.000 4099.344801737470 5090.961596639120 -1852.799686515160 -4.85476228322268 1.86324402665779 -5.62791179920919
2023-04-27T17:55:00.000 2799.124742878150 5347.349037858230 -3119.373282914930 -5.91397732483502 0.26055899500856 -4.86232203707874
2023-04-27T17:59:00.000 1295.228264163560 5214.669711751240 -4158.356007776780 -6.54186064018866 -1.35912349151464 -3.74310556851180
2023-04-27T18:03:00.000 -302.808032770538 4703.045552067780 -4894.312647975690 -6.69389927618828 -2.87813832077709 -2.35262828292839
2023-04-27T18:07:00.000 -1878.882660557340 3850.021532407210 -5273.990068220160 -6.36009282844181 -4.18694460551334 -0.79220083727101
2023-04-27T18:11:00.000 -3318.670509471300 2717.710401974110 -5270.001915617030 -5.56510972848523 -5.19150722162424 0.82519195804715
2023-04-27T18:15:00.000 -4517.752605880130 1388.285205284360 -4882.692491219050 -4.36630719110126 -5.81962137542404 2.38278791112949
2023-04-27T18:19:00.000 -5389.015829712370 -41.864601752881 -4140.090516305870 -2.84975807070348 -6.02570014250266 3.76794381408572
2023-04-27T18:23:00.000 -5868.912508707870 -1468.955275230430 -3095.989665265220 -1.12468870458496 -5.79414708598033 4.87986884095945
2023-04-27T18:27:00.000 -5922.164006940320 -2789.239185766090 -1826.206599721660 0.68392185214474 -5.14093733961382 5.63698347080906
2023-04-27T18:31:00.000 -5544.506919850600 -3906.554942569970 -423.188520762415 2.44417711675768 -4.11303546521213 5.98322947793092
2023-04-27T18:35:00.000 -4763.168888377370 -4739.444868640840 1010.717273038960 4.02723645242418 -2.78523811236639 5.89273059534382
2023-04-27T18:39:00.000 -3634.953735756000 -5227.204297954960 2370.810724691330 5.31703167647354 -1.25463408616786 5.37191845432268
2023-04-27T18:43:00.000 -2242.075813603570 -5334.395273410370 3557.806969823980 6.21927589351239 0.36668253760920 4.45918522286090
2023-04-27T18:47:00.000 -686.026165436065 -5053.414266455790 4485.175041936940 6.66857114812499 1.96036753192295 3.22167715219279
2023-04-27T18:51:00.000 919.932768405113 -4404.919639483490 5085.428126957650 6.63273241226043 3.41065829906423 1.74992859322224
2023-04-27T18:55:00.000 2459.021977114990 -3436.214268077210 5314.948961392870 6.11476020370698 4.61260574420256 0.15107715442861
2023-04-27T18:59:00.000 3819.369299202560 -2217.748832944220 5157.050986729860 5.15224348492488 5.47936045910944 -1.45892639872202
2023-04-27T19:03:00.000 4902.008499179900 -838.044322533903 4623.132160720790 3.81451967916083 5.94802894513496 -2.96332008024906
2023-04-27T19:07:00.000 5627.993191002170 602.614783615352 3751.910214959270 2.19816746242705 5.98411738078766 -4.25255967249294
2023-04-27T19:11:00.000 5944.181626145780 1999.377576518090 2606.730361885770 0.42040022170624 5.58434919012307 -5.23220728255160
2023-04-27T19:15:00.000 5827.240662697710 3250.442491179430 1271.072700054750 -1.38907751807901 4.77734880297545 -5.83002120092599
2023-04-27T19:19:00.000 5285.516177540840 4264.562596302140 -157.507843138646 -3.09764809952675 3.62194614782475 -6.00175101366619
2023-04-27T19:23:00.000 4358.521348853840 4967.839938337530 -1574.585935862750 -4.57989682141794 2.20299146355252 -5.73481087004627
2023-04-27T19:27:00.000 3114.010129326190 5309.231155568950 -2876.651464145030 -5.72743917086866 0.62482239868369 -5.04934014417097
2023-04-27T19:31:00.000 1642.863564513310 5264.259445100550 -3968.797926537150 -6.45711712412115 -0.99696101455107 -3.99637343494405
2023-04-27T19:35:00.000 52.282263079905 4836.655818931900 -4771.666082307540 -6.71684251595037 -2.54437360606100 -2.65354009954394
2023-04-27T19:39:00.000 -1542.110054625100 4057.892056070800 -5227.121085971400 -6.48885467972197 -3.90561247208726 -1.11893824440264
2023-04-27T19:43:00.000 -3024.636472807880 2984.735885066170 -5302.293918390590 -5.79034147325383 -4.98285927451850 0.49626078784004
2023-04-27T19:47:00.000 -4287.789803864990 1695.100809952280 -4991.804635847260 -4.67178255681945 -5.69870104621744 2.07543307389162
2023-04-27T19:51:00.000 -5239.850493208630 282.492650019405 -4318.126672684780 -3.21352525574210 -6.00135659301654 3.50444120402485
2023-04-27T19:55:00.000 -5811.450084135520 -1150.610518094570 -3330.038553382250 -1.52046270599704 -5.86831724695366 4.67947229020767
2023-04-27T19:59:00.000 -5960.663237224060 -2500.066369257300 -2099.249892341790 0.28491563741206 -5.30840802097048 5.51445150736907
2023-04-27T20:03:00.000 -5676.225751041600 -3667.621364605290 -715.321459688570 2.07112826772623 -4.36165545749238 5.94767506795568
2023-04-27T20:07:00.000 -4978.545633479870 -4568.149636730480 720.820558180962 3.70740602404239 -3.09681316742543 5.94681345731158
2023-04-27T20:11:00.000 -3918.316091341040 -5136.001527979490 2104.322554337070 5.07379749787810 -1.60640050075791 5.51170585844502
2023-04-27T20:15:00.000 -2572.779591507340 -5329.884167789980 3334.181105437410 6.07040440800475 0.00045217970446 4.67437150195921
2023-04-27T20:19:00.000 -1039.989259732160 -5135.863905094310 4320.703858567990 6.62477237548106 1.60632024231408 3.49642335956797
2023-04-27T20:23:00.000 568.457110950458 -4568.296018504700 4992.077793940740 6.69713276155212 3.09441978115889 2.06423098683738
